ONEWEB-0555             
1 56057U 23043M   24195.47542060  .00000137  00000+0  32467-3 0  9999
2 56057  87.9105   8.8703 0002032 111.5783 248.5565 13.16593334 66368
ONEWEB-0557             
1 56058U 23043N   24195.48966847  .00000099  00000+0  22432-3 0  9992
2 56058  87.9104   8.8929 0002529 112.7497 247.3901 13.16593314 66363
ONEWEB-0558             
1 56059U 23043P   24195.54171939 -.00000821  00000+0 -20194-2 0  9997
2 56059  87.9277  24.0556 0001634  73.2247 286.9066 13.21813915 65280
ONEWEB-0559             
1 56060U 23043Q   24195.60637790  .00000082  00000+0  16630-3 0  9996
2 56060  87.9276  24.0403 0002195  74.8745 285.2631 13.21827094 65301
ONEWEB-0566             
1 56061U 23043R   24195.60005506  .00000025  00000+0  29746-4 0  9991
2 56061  87.9276  24.0419 0001702  65.5892 294.5420 13.21828219 65288
ONEWEB-0568             
1 56062U 23043S   24195.50708609  .00000007  00000+0 -15178-4 0  9990
2 56062  87.9105   8.8537 0001772 102.4794 257.6535 13.16593623 66381
ONEWEB-0574             
1 56063U 23043T   24195.59375177  .00000047  00000+0  83183-4 0  9994
2 56063  87.9274  24.0372 0001674  88.5473 271.5853 13.21824495 65326
ONEWEB-0575             
1 56064U 23043U   24195.50074797  .00000000  00000+0 -33271-4 0  9993
2 56064  87.9106   8.8645 0002322 100.6346 259.5046 13.16593586 66374
ONEWEB-0576             
1 56065U 23043V   24195.55775004  .00000158  00000+0  37868-3 0  9996
2 56065  87.9104   8.8501 0001928 104.0007 256.1338 13.16594233 66374
ONEWEB-0577             
1 56066U 23043W   24195.56407856  .00000067  00000+0  14249-3 0  9992
2 56066  87.9105   8.8480 0002561 100.6904 259.4515 13.16594026 67312
ONEWEB-0578             
1 56067U 23043X   24195.58113200  .00000033  00000+0  48426-4 0  9990
2 56067  87.9278  24.0389 0001804  93.1421 266.9919 13.21823939 65280
ONEWEB-0579             
1 56068U 23043Y   24195.57168306  .00000031  00000+0  44081-4 0  9998
2 56068  87.9275  24.0373 0002059  78.5640 281.5725 13.21825322 66203
ONEWEB-0581             
1 56069U 23043Z   24195.49441205  .00000052  00000+0  10238-3 0  9991
2 56069  87.9104   8.8919 0002408  91.4959 268.6448 13.16593687 66361
ONEWEB-0609             
1 56070U 23043AA  24195.57740888  .00000020  00000+0  20015-4 0  9991
2 56070  87.9021  39.2340 0001734  83.1141 277.0186 13.15547240 63924
ONEWEB-0613             
1 56071U 23043AB  24195.57265483  .00000085  00000+0  19300-3 0  9990
2 56071  87.9025  39.2319 0001884  75.2582 284.8757 13.15546984 63926
ONEWEB-0630             
1 56072U 23043AC  24195.56790766  .00000149  00000+0  36187-3 0  9990
2 56072  87.9022  39.2230 0001784  72.6009 287.5316 13.15547702 63919
ONEWEB-0632             
1 56073U 23043AD  24195.56315764  .00000129  00000+0  30892-3 0  9997
2 56073  87.9021  39.2427 0002169  84.6746 275.4632 13.15548783 63913
ONEWEB-0633             
1 56074U 23043AE  24195.55680488  .00000146  00000+0  35445-3 0  9993
2 56074  87.9017  39.2247 0001647  67.6012 292.5293 13.15547056 64800
ONEWEB-0634             
1 56075U 23043AF  24195.61860946  .00000071  00000+0  15521-3 0  9990
2 56075  87.9024  39.2249 0001426  87.0559 273.0735 13.15549135 63891
ONEWEB-0635             
1 56076U 23043AG  24195.61385397 -.00000002  00000+0 -39552-4 0  9990
2 56076  87.9020  39.2800 0002219  86.1447 273.9937 13.15547131 63929
ONEWEB-0636             
1 56077U 23043AH  24195.60593824 -.00000111  00000+0 -32762-3 0  9992
2 56077  87.9021  39.2513 0002178  86.0725 274.0654 13.15548061 63903
ONEWEB-0637             
1 56078U 23043AJ  24195.59959399 -.00000121  00000+0 -35448-3 0  9999
2 56078  87.9023  39.2292 0002158  88.0104 272.1273 13.15546811 63920
ONEWEB-0647             
1 56079U 23043AK  24195.59483496 -.00000119  00000+0 -35099-3 0  9999
2 56079  87.9021  39.2483 0002088  80.8162 279.3204 13.15550764 63911
ONEWEB-0651             
1 56080U 23043AL  24195.59008273 -.00000086  00000+0 -26231-3 0  9998
2 56080  87.9025  39.2268 0002175  92.0374 268.1005 13.15548285 65119
ONEWEB-0718             
1 56081U 23043AM  24195.58534043 -.00000076  00000+0 -23473-3 0  9991
2 56081  87.9024  39.2140 0001270  94.1961 265.9314 13.15548746 63925
ONEWEB-0561             
1 56710U 23068A   24195.56870083  .00000070  00000+0  13948-3 0  9990
2 56710  87.9205  54.4607 0002526  82.3298 277.8122 13.20771061 57329
ONEWEB-0668             
1 56711U 23068B   24195.49677964 -.00000221  00000+0 -61184-3 0  9991
2 56711  87.9096   8.8709 0001425 110.6263 249.5021 13.16593844 59184
ONEWEB-0676             
1 56712U 23068C   24195.47700316  .00000169  00000+0  40804-3 0  9993
2 56712  87.9104   8.8824 0002409  90.2772 269.8635 13.16595504 59107
ONEWEB-0677             
1 56713U 23068D   24195.55770453  .00001359  00000+0  33086-2 0  9997
2 56713  87.9178  54.4560 0002170  91.7856 268.3526 13.20786652 56928
ONEWEB-0678             
1 56714U 23068E   24195.55364140  .00000176  00000+0  43427-3 0  9997
2 56714  87.9026  39.1855 0001931  75.8019 284.3326 13.15547446 56775
ONEWEB-0679             
1 56715U 23068F   24195.52212077 -.00000001  00000+0 -35092-4 0  9995
2 56715  87.9101   8.8760 0002126 111.0508 249.0851 13.16592190 59132
ONEWEB-0680             
1 56716U 23068G   24195.57482092 -.00000126  00000+0 -33754-3 0  9997
2 56716  87.9278  24.0848 0001405 115.7053 244.4226 13.21827177 58147
ONEWEB-0681             
1 56717U 23068H   24195.58508949  .00000027  00000+0  33075-4 0  9994
2 56717  87.9277  24.0624 0003021  89.9416 270.2064 13.21827788 58134
ONEWEB-0682             
1 56718U 23068J   24195.57977826 -.00000298  00000+0 -82478-3 0  9990
2 56718  87.9022  39.2212 0001644 104.9370 255.1942 13.15548312 56940
ONEWEB-0683             
1 56719U 23068K   24195.60117576 -.00000101  00000+0 -30229-3 0  9993
2 56719  87.9021  39.1891 0001679  95.6773 264.4549 13.15547139 56912
ONEWEB-0684             
1 56720U 23068L   24195.60909912 -.00000054  00000+0 -17836-3 0  9994
2 56720  87.9022  39.2643 0001940  37.0789 323.0474 13.15546787 56747
ONEWEB-0686             
1 56721U 23068M   24195.51182918  .00000022  00000+0  24141-4 0  9995
2 56721  87.9099   8.9145 0001656  88.4412 271.6908 13.16593483 59120
ONEWEB-0694             
1 56722U 23068N   24195.47147602  .00000110  00000+0  25295-3 0  9990
2 56722  87.9099   8.8414 0001682 106.8386 253.2929 13.16595192 59176
ONEWEB-0696             
1 56723U 23068P   24195.56632476  .00000118  00000+0  28001-3 0  9995
2 56723  87.9023  39.2471 0001985  79.7669 280.3685 13.15548148 57551
ONEWEB-0703             
1 56724U 23068Q   24195.57582642  .00000077  00000+0  17066-3 0  9999
2 56724  87.9022  39.2658 0002815  66.4937 293.6488 13.15546932 56749
ONEWEB-0721             
1 56725U 23068R   24195.39210921  .00005004  00000+0  57854-3 0  9992
2 56725  86.6788 325.1224 0011093 166.7231 193.4287 14.85341616 62404
